ONEWEB-0058             
1 45161U 20008AG  25360.18459878  .00000450  00000+0  12540-2 0  9995
2 45161  87.8795  70.7729 0001585  95.4450 264.6858 13.10373728285763
ONEWEB-0059             
1 45162U 20008AH  25360.25748448  .00000424  00000+0  11786-2 0  9990
2 45162  87.8800  70.7587 0001751  99.3260 260.8066 13.10377270285675
ONEWEB-0062             
1 45163U 20008AJ  25360.20685417  .00000340  00000+0  93889-3 0  9994
2 45163  87.8797  70.7457 0001446  93.5051 266.6242 13.10369174285531
ONEWEB-0065             
1 45164U 20008AK  25360.23741916 -.00001937  00000+0 -55866-2 0  9992
2 45164  87.8804  70.7546 0002227 106.5341 253.6032 13.10384432285239
ONEWEB-0066             
1 45424U 20020A   25359.72413706 -.00000552  00000+0 -15939-2 0  9999
2 45424  87.8850  55.6040 0002011  98.9707 261.1649 13.11416837279946
ONEWEB-0067             
1 45425U 20020B   25360.21936154  .00000527  00000+0  14508-2 0  9994
2 45425  87.8857  55.4093 0001964 101.7810 258.3539 13.11416599280060
ONEWEB-0080             
1 45426U 20020C   25360.22855452  .00000623  00000+0  17210-2 0  9997
2 45426  87.8841  55.5034 0001739  89.8629 270.2698 13.11415353280037
ONEWEB-0090             
1 45427U 20020D   25360.17173601 -.00000042  00000+0 -15473-3 0  9998
2 45427  87.8845  55.5165 0001742 100.3168 259.8157 13.11413670279994
ONEWEB-0061             
1 45428U 20020E   25360.20381310 -.00000077  00000+0 -25299-3 0  9996
2 45428  87.8852  55.4916 0001794 100.6939 259.4391 13.11417531279954
ONEWEB-0081             
1 45429U 20020F   25360.18530483 -.00000496  00000+0 -14367-2 0  9999
2 45429  87.8851  55.5119 0001994  99.4374 260.6979 13.11417086280065
ONEWEB-0069             
1 45430U 20020G   25360.17428384 -.00000177  00000+0 -53598-3 0  9992
2 45430  87.8847  55.5098 0001873 100.7373 259.3966 13.11415117279993
ONEWEB-0031             
1 45431U 20020H   25360.22261650  .00000547  00000+0  15066-2 0  9996
2 45431  87.8843  55.5232 0001608  97.2963 262.8348 13.11416568279984
ONEWEB-0027             
1 45432U 20020J   25360.17140461  .00000099  00000+0  22269-3 0  9993
2 45432  87.9105  40.2388 0001411 103.1954 256.9335 13.17648018283572
ONEWEB-0064             
1 45433U 20020K   25360.22092193  .00000486  00000+0  13367-2 0  9996
2 45433  87.8844  55.5135 0001602 100.0816 260.0493 13.11416608280015
ONEWEB-0018             
1 45434U 20020L   25360.17681833 -.00000310  00000+0 -90941-3 0  9998
2 45434  87.8849  55.5127 0001823  95.9709 264.1627 13.11414079279955
ONEWEB-0083             
1 45435U 20020M   25360.16750541  .00000096  00000+0  23630-3 0  9991
2 45435  87.8846  55.5037 0001736  99.1241 261.0083 13.11413910279992
ONEWEB-0095             
1 45436U 20020N   25360.08202995  .00000441  00000+0  12090-2 0  9999
2 45436  87.8845  55.5316 0001754 127.1609 232.9680 13.11415440279981
