[{"OBJECT_NAME":"ONEWEB-0058","OBJECT_ID":"2020-008AG","EPOCH":"2025-12-26T04:25:49.334592","MEAN_MOTION":13.10373728,"ECCENTRICITY":0.00015853,"INCLINATION":87.8795,"RA_OF_ASC_NODE":70.7729,"ARG_OF_PERICENTER":95.445,"MEAN_ANOMALY":264.6858,"EPHEMERIS_TYPE":0,"CLASSIFICATION_TYPE":"U","NORAD_CAT_ID":45161,"ELEMENT_SET_NO":999,"REV_AT_EPOCH":28576,"BSTAR":0.0012539749,"MEAN_MOTION_DOT":4.5e-6,"MEAN_MOTION_DDOT":0},{"OBJECT_NAME":"ONEWEB-0059","OBJECT_ID":"2020-008AH","EPOCH":"2025-12-26T06:10:46.659072","MEAN_MOTION":13.1037727,"ECCENTRICITY":0.00017511,"INCLINATION":87.88,"RA_OF_ASC_NODE":70.7587,"ARG_OF_PERICENTER":99.326,"MEAN_ANOMALY":260.8066,"EPHEMERIS_TYPE":0,"CLASSIFICATION_TYPE":"U","NORAD_CAT_ID":45162,"ELEMENT_SET_NO":999,"REV_AT_EPOCH":28567,"BSTAR":0.0011786243,"MEAN_MOTION_DOT":4.24e-6,"MEAN_MOTION_DDOT":0},{"OBJECT_NAME":"ONEWEB-0062","OBJECT_ID":"2020-008AJ","EPOCH":"2025-12-26T04:57:52.200288","MEAN_MOTION":13.10369174,"ECCENTRICITY":0.00014463,"INCLINATION":87.8797,"RA_OF_ASC_NODE":70.7457,"ARG_OF_PERICENTER":93.5051,"MEAN_ANOMALY":266.6242,"EPHEMERIS_TYPE":0,"CLASSIFICATION_TYPE":"U","NORAD_CAT_ID":45163,"ELEMENT_SET_NO":999,"REV_AT_EPOCH":28553,"BSTAR":0.00093889479,"MEAN_MOTION_DOT":3.4e-6,"MEAN_MOTION_DDOT":0},{"OBJECT_NAME":"ONEWEB-0065","OBJECT_ID":"2020-008AK","EPOCH":"2025-12-26T05:41:53.015424","MEAN_MOTION":13.10384432,"ECCENTRICITY":0.00022279,"INCLINATION":87.8804,"RA_OF_ASC_NODE":70.7546,"ARG_OF_PERICENTER":106.5341,"MEAN_ANOMALY":253.6032,"EPHEMERIS_TYPE":0,"CLASSIFICATION_TYPE":"U","NORAD_CAT_ID":45164,"ELEMENT_SET_NO":999,"REV_AT_EPOCH":28523,"BSTAR":-0.0055866271,"MEAN_MOTION_DOT":-1.937e-5,"MEAN_MOTION_DDOT":0},{"OBJECT_NAME":"ONEWEB-0066","OBJECT_ID":"2020-020A","EPOCH":"2025-12-25T17:22:45.441984","MEAN_MOTION":13.11416837,"ECCENTRICITY":0.00020118,"INCLINATION":87.885,"RA_OF_ASC_NODE":55.604,"ARG_OF_PERICENTER":98.9707,"MEAN_ANOMALY":261.1649,"EPHEMERIS_TYPE":0,"CLASSIFICATION_TYPE":"U","NORAD_CAT_ID":45424,"ELEMENT_SET_NO":999,"REV_AT_EPOCH":27994,"BSTAR":-0.001593905,"MEAN_MOTION_DOT":-5.52e-6,"MEAN_MOTION_DDOT":0},{"OBJECT_NAME":"ONEWEB-0067","OBJECT_ID":"2020-020B","EPOCH":"2025-12-26T05:15:52.837056","MEAN_MOTION":13.11416599,"ECCENTRICITY":0.00019646,"INCLINATION":87.8857,"RA_OF_ASC_NODE":55.4093,"ARG_OF_PERICENTER":101.781,"MEAN_ANOMALY":258.3539,"EPHEMERIS_TYPE":0,"CLASSIFICATION_TYPE":"U","NORAD_CAT_ID":45425,"ELEMENT_SET_NO":999,"REV_AT_EPOCH":28006,"BSTAR":0.0014508194,"MEAN_MOTION_DOT":5.27e-6,"MEAN_MOTION_DDOT":0},{"OBJECT_NAME":"ONEWEB-0080","OBJECT_ID":"2020-020C","EPOCH":"2025-12-26T05:29:07.110528","MEAN_MOTION":13.11415353,"ECCENTRICITY":0.00017395,"INCLINATION":87.8841,"RA_OF_ASC_NODE":55.5034,"ARG_OF_PERICENTER":89.8629,"MEAN_ANOMALY":270.2698,"EPHEMERIS_TYPE":0,"CLASSIFICATION_TYPE":"U","NORAD_CAT_ID":45426,"ELEMENT_SET_NO":999,"REV_AT_EPOCH":28003,"BSTAR":0.0017210273,"MEAN_MOTION_DOT":6.23e-6,"MEAN_MOTION_DDOT":0},{"OBJECT_NAME":"ONEWEB-0090","OBJECT_ID":"2020-020D","EPOCH":"2025-12-26T04:07:17.991264","MEAN_MOTION":13.1141367,"ECCENTRICITY":0.00017421,"INCLINATION":87.8845,"RA_OF_ASC_NODE":55.5165,"ARG_OF_PERICENTER":100.3168,"MEAN_ANOMALY":259.8157,"EPHEMERIS_TYPE":0,"CLASSIFICATION_TYPE":"U","NORAD_CAT_ID":45427,"ELEMENT_SET_NO":999,"REV_AT_EPOCH":27999,"BSTAR":-0.00015472651,"MEAN_MOTION_DOT":-4.2e-7,"MEAN_MOTION_DDOT":0},{"OBJECT_NAME":"ONEWEB-0061","OBJECT_ID":"2020-020E","EPOCH":"2025-12-26T04:53:29.451840","MEAN_MOTION":13.11417531,"ECCENTRICITY":0.0001794,"INCLINATION":87.8852,"RA_OF_ASC_NODE":55.4916,"ARG_OF_PERICENTER":100.6939,"MEAN_ANOMALY":259.4391,"EPHEMERIS_TYPE":0,"CLASSIFICATION_TYPE":"U","NORAD_CAT_ID":45428,"ELEMENT_SET_NO":999,"REV_AT_EPOCH":27995,"BSTAR":-0.000252994,"MEAN_MOTION_DOT":-7.7e-7,"MEAN_MOTION_DDOT":0},{"OBJECT_NAME":"ONEWEB-0081","OBJECT_ID":"2020-020F","EPOCH":"2025-12-26T04:26:50.337312","MEAN_MOTION":13.11417086,"ECCENTRICITY":0.00019941,"INCLINATION":87.8851,"RA_OF_ASC_NODE":55.5119,"ARG_OF_PERICENTER":99.4374,"MEAN_ANOMALY":260.6979,"EPHEMERIS_TYPE":0,"CLASSIFICATION_TYPE":"U","NORAD_CAT_ID":45429,"ELEMENT_SET_NO":999,"REV_AT_EPOCH":28006,"BSTAR":-0.001436709,"MEAN_MOTION_DOT":-4.96e-6,"MEAN_MOTION_DDOT":0},{"OBJECT_NAME":"ONEWEB-0069","OBJECT_ID":"2020-020G","EPOCH":"2025-12-26T04:10:58.123776","MEAN_MOTION":13.11415117,"ECCENTRICITY":0.00018732,"INCLINATION":87.8847,"RA_OF_ASC_NODE":55.5098,"ARG_OF_PERICENTER":100.7373,"MEAN_ANOMALY":259.3966,"EPHEMERIS_TYPE":0,"CLASSIFICATION_TYPE":"U","NORAD_CAT_ID":45430,"ELEMENT_SET_NO":999,"REV_AT_EPOCH":27999,"BSTAR":-0.00053597713,"MEAN_MOTION_DOT":-1.77e-6,"MEAN_MOTION_DDOT":0},{"OBJECT_NAME":"ONEWEB-0031","OBJECT_ID":"2020-020H","EPOCH":"2025-12-26T05:20:34.065600","MEAN_MOTION":13.11416568,"ECCENTRICITY":0.00016084,"INCLINATION":87.8843,"RA_OF_ASC_NODE":55.5232,"ARG_OF_PERICENTER":97.2963,"MEAN_ANOMALY":262.8348,"EPHEMERIS_TYPE":0,"CLASSIFICATION_TYPE":"U","NORAD_CAT_ID":45431,"ELEMENT_SET_NO":999,"REV_AT_EPOCH":27998,"BSTAR":0.0015065958,"MEAN_MOTION_DOT":5.47e-6,"MEAN_MOTION_DDOT":0},{"OBJECT_NAME":"ONEWEB-0027","OBJECT_ID":"2020-020J","EPOCH":"2025-12-26T04:06:49.358304","MEAN_MOTION":13.17648018,"ECCENTRICITY":0.00014111,"INCLINATION":87.9105,"RA_OF_ASC_NODE":40.2388,"ARG_OF_PERICENTER":103.1954,"MEAN_ANOMALY":256.9335,"EPHEMERIS_TYPE":0,"CLASSIFICATION_TYPE":"U","NORAD_CAT_ID":45432,"ELEMENT_SET_NO":999,"REV_AT_EPOCH":28357,"BSTAR":0.0002226875,"MEAN_MOTION_DOT":9.9e-7,"MEAN_MOTION_DDOT":0},{"OBJECT_NAME":"ONEWEB-0064","OBJECT_ID":"2020-020K","EPOCH":"2025-12-26T05:18:07.654752","MEAN_MOTION":13.11416608,"ECCENTRICITY":0.00016022,"INCLINATION":87.8844,"RA_OF_ASC_NODE":55.5135,"ARG_OF_PERICENTER":100.0816,"MEAN_ANOMALY":260.0493,"EPHEMERIS_TYPE":0,"CLASSIFICATION_TYPE":"U","NORAD_CAT_ID":45433,"ELEMENT_SET_NO":999,"REV_AT_EPOCH":28001,"BSTAR":0.0013366845,"MEAN_MOTION_DOT":4.86e-6,"MEAN_MOTION_DDOT":0},{"OBJECT_NAME":"ONEWEB-0018","OBJECT_ID":"2020-020L","EPOCH":"2025-12-26T04:14:37.103712","MEAN_MOTION":13.11414079,"ECCENTRICITY":0.00018237,"INCLINATION":87.8849,"RA_OF_ASC_NODE":55.5127,"ARG_OF_PERICENTER":95.9709,"MEAN_ANOMALY":264.1627,"EPHEMERIS_TYPE":0,"CLASSIFICATION_TYPE":"U","NORAD_CAT_ID":45434,"ELEMENT_SET_NO":999,"REV_AT_EPOCH":27995,"BSTAR":-0.00090940673,"MEAN_MOTION_DOT":-3.1e-6,"MEAN_MOTION_DDOT":0},{"OBJECT_NAME":"ONEWEB-0083","OBJECT_ID":"2020-020M","EPOCH":"2025-12-26T04:01:12.467424","MEAN_MOTION":13.1141391,"ECCENTRICITY":0.00017369,"INCLINATION":87.8846,"RA_OF_ASC_NODE":55.5037,"ARG_OF_PERICENTER":99.1241,"MEAN_ANOMALY":261.0083,"EPHEMERIS_TYPE":0,"CLASSIFICATION_TYPE":"U","NORAD_CAT_ID":45435,"ELEMENT_SET_NO":999,"REV_AT_EPOCH":27999,"BSTAR":0.00023629631,"MEAN_MOTION_DOT":9.6e-7,"MEAN_MOTION_DDOT":0},{"OBJECT_NAME":"ONEWEB-0095","OBJECT_ID":"2020-020N","EPOCH":"2025-12-26T01:58:07.387680","MEAN_MOTION":13.1141544,"ECCENTRICITY":0.00017545,"INCLINATION":87.8845,"RA_OF_ASC_NODE":55.5316,"ARG_OF_PERICENTER":127.1609,"MEAN_ANOMALY":232.968,"EPHEMERIS_TYPE":0,"CLASSIFICATION_TYPE":"U","NORAD_CAT_ID":45436,"ELEMENT_SET_NO":999,"REV_AT_EPOCH":27998,"BSTAR":0.0012089901,"MEAN_MOTION_DOT":4.41e-6,"MEAN_MOTION_DDOT":0}]
